OBJECT_NAME,OBJECT_ID,EPOCH,MEAN_MOTION,ECCENTRICITY,INCLINATION,RA_OF_ASC_NODE,ARG_OF_PERICENTER,MEAN_ANOMALY,EPHEMERIS_TYPE,CLASSIFICATION_TYPE,NORAD_CAT_ID,ELEMENT_SET_NO,REV_AT_EPOCH,BSTAR,MEAN_MOTION_DOT,MEAN_MOTION_DDOT
GSAT0216 (GALILEO 20),2017-079B,2026-06-24T08:17:47.655744,1.70474733,.00045935,55.0720,221.3096,276.6591,83.3714,0,U,43056,999,5312,0,.5E-6,0
GSAT0217 (GALILEO 21),2017-079C,2026-06-22T05:17:01.099968,1.70474640,.00039449,55.0697,221.3658,287.9119,72.1199,0,U,43057,999,5307,0,.34E-6,0
GSAT0218 (GALILEO 22),2017-079D,2026-06-20T16:19:53.873760,1.70474354,.00055072,55.0711,221.4058,273.6284,86.3834,0,U,43058,999,5307,0,.26E-6,0
BEIDOU-3 M7 (C27),2018-003A,2026-06-24T20:49:53.141088,1.86228032,.00048495,54.3206,302.0464,95.1161,264.9315,0,U,43107,999,5749,0,-.109E-5,0
BEIDOU-3 M8 (C28),2018-003B,2026-06-23T04:50:33.328896,1.86230831,.00025428,54.3145,302.0864,259.7475,100.2170,0,U,43108,999,5747,0,-.108E-5,0
BEIDOU-3 M4 (C22),2018-018A,2026-06-23T02:35:17.847744,1.86231248,.00076138,56.6562,62.9525,21.6777,338.3900,0,U,43207,999,5685,0,-.93E-6,0
BEIDOU-3 M3 (C21),2018-018B,2026-06-24T05:57:27.884160,1.86231188,.00083319,56.6570,62.9189,342.5104,17.4973,0,U,43208,999,5687,0,-.95E-6,0
BEIDOU-3 M9 (C29),2018-029A,2026-06-23T09:24:44.855712,1.86228474,.00010003,54.1874,299.7308,149.6212,210.3794,0,U,43245,999,5601,0,-.108E-5,0
BEIDOU-3 M10 (C30),2018-029B,2026-06-23T20:43:24.143232,1.86229058,.000377,54.1851,299.7412,40.2593,319.7629,0,U,43246,999,5600,0,-.108E-5,0
IRNSS-1I,2018-035A,2026-06-24T19:11:38.629824,1.00275960,.00176215,28.7725,74.0767,182.3144,359.3363,0,U,43286,999,3015,0,.66E-6,0
COSMOS 2527 (756),2018-053A,2026-06-24T02:57:59.980896,2.13102088,.00068622,65.5817,73.6758,236.8617,123.1045,0,U,43508,999,6242,0,-.68E-6,0
BEIDOU-2 IGSO-7 (C16),2018-057A,2026-06-24T21:51:17.515296,1.00249104,.01049999,55.1969,162.9895,238.0321,309.1489,0,U,43539,999,2920,0,-.19E-6,0
GSAT0221 (GALILEO 25),2018-060A,2026-06-24T02:29:44.024928,1.70476197,.00025302,57.1671,341.5936,300.0731,59.8987,0,U,43564,999,4928,0,-.98E-6,0
GSAT0222 (GALILEO 26),2018-060B,2026-06-21T09:22:38.520768,1.70475809,.00020342,57.1710,341.6704,246.5054,113.4691,0,U,43565,999,4928,0,-.96E-6,0
GSAT0219 (GALILEO 23),2018-060C,2026-06-23T08:54:45.661248,1.70476156,.00018503,57.1701,341.6184,318.0636,41.9192,0,U,43566,999,4929,0,-.98E-6,0
GSAT0220 (GALILEO 24),2018-060D,2026-06-24T18:22:21.701280,1.70476182,.00019268,57.1676,341.5803,308.3062,51.6730,0,U,43567,999,4930,0,-.97E-6,0
BEIDOU-3 M5 (C23),2018-062A,2026-06-24T02:06:01.116288,1.86228874,.00057228,54.0858,182.0690,290.5821,69.3874,0,U,43581,999,5376,0,.103E-5,0
BEIDOU-3 M6 (C24),2018-062B,2026-06-22T08:09:48.230784,1.86227655,.00050226,54.0853,182.1173,8.9352,351.1006,0,U,43582,999,5373,0,.91E-6,0
BEIDOU-3 M12 (C26),2018-067A,2026-06-23T08:27:33.668928,1.86227676,.00078305,54.1809,180.8309,29.6950,330.3768,0,U,43602,999,5323,0,.1E-5,0
BEIDOU-3 M11 (C25),2018-067B,2026-06-24T00:35:18.098592,1.86227182,.00045297,54.1780,180.7717,12.6932,347.3467,0,U,43603,999,5327,0,.103E-5,0
BEIDOU-3 M13 (C32),2018-072A,2026-06-23T23:30:12.890304,1.86231143,.00071123,56.6310,62.4352,330.2799,29.7162,0,U,43622,999,5278,0,-.95E-6,0
BEIDOU-3 M14 (C33),2018-072B,2026-06-21T03:50:22.020576,1.86231105,.00061136,56.6300,62.5227,1.7993,358.2413,0,U,43623,999,5272,0,-.8E-6,0
BEIDOU-3 M16 (C35),2018-078A,2026-06-22T22:13:33.101184,1.86232370,.00070757,54.0842,299.7848,40.9359,319.1123,0,U,43647,999,5226,0,-.107E-5,0
BEIDOU-3 M15 (C34),2018-078B,2026-06-24T03:06:07.385760,1.86232514,.00040224,54.0787,299.7429,57.9396,302.0936,0,U,43648,999,5230,0,-.108E-5,0
BEIDOU-3 G1 (C59),2018-085A,2026-06-25T06:31:00.313824,1.00270887,.00084699,2.8896,97.1549,350.9441,82.9932,0,U,43683,999,2814,0,-.102E-5,0
COSMOS 2529 (757),2018-086A,2026-06-25T03:48:20.065248,2.13101985,.00120967,64.2951,192.3252,256.3866,103.5319,0,U,43687,999,5945,0,.107E-5,0
BEIDOU-3 M17 (C36),2018-093A,2026-06-23T07:04:57.567936,1.86228518,.0010172,54.1694,182.0887,292.5726,119.7810,0,U,43706,999,5165,0,.1E-5,0
BEIDOU-3 M18 (C37),2018-093B,2026-06-23T14:48:59.326848,1.86226670,.00081148,54.1701,182.0698,320.9628,39.0087,0,U,43707,999,5165,0,.101E-5,0
GPS BIII-1  (PRN 04),2018-109A,2026-06-24T18:07:20.531136,2.00562159,.00383739,55.6865,91.8879,197.7413,350.3852,0,U,43873,999,5522,0,-.62E-6,0
BEIDOU-3 IGSO-1 (C38),2019-023A,2026-06-24T12:59:44.316960,1.00289953,.00257477,58.7053,37.5725,224.9564,323.4804,0,U,44204,999,728,0,-.226E-5,0
BEIDOU-2 G8 (C01),2019-027A,2026-06-25T08:09:09.086400,1.00269120,.00100102,1.6795,74.5264,284.4814,181.2550,0,U,44231,999,2616,0,-.239E-5,0
